IRIDIUM 76 [P]          
1 25432U 98048B   18137.45972104 -.00000019  00000-0 -12889-4 0  9991
2 25432  86.4233 115.8156 0002510  74.6792 285.4683 14.38598716 33536
IRIDIUM 82 [-]          
1 25467U 98051A   18137.34763003  .00000639  00000-0  46462-4 0  9997
2 25467  86.4045 228.0137 0179064 279.9732  78.1328 14.89869543 36580
IRIDIUM 81 [+]          
1 25468U 98051B   18137.39023350  .00000206  00000-0  60917-4 0  9998
2 25468  86.4261 242.1134 0002508  96.9949 263.1534 14.38605034 30890
IRIDIUM 80 [+]          
1 25469U 98051C   18137.37074622  .00000183  00000-0  58260-4 0  9997
2 25469  86.3989 242.3602 0001688 101.8386 321.1333 14.34219566 30730
IRIDIUM 2 [-]           
1 25527U 98066A   18137.23451214  .00001038  00000-0  50071-4 0  9991
2 25527  85.5324 194.9431 0006933 313.6152  46.4513 15.17376148 68519
IRIDIUM 86 [+]          
1 25528U 98066B   18137.23463905  .00000176  00000-0  55684-4 0  9999
2 25528  86.3997 210.1184 0001903  73.3670 286.7734 14.34219763 27244
IRIDIUM 84 [+]          
1 25530U 98066D   18137.26637326  .00000189  00000-0  60555-4 0  9992
2 25530  86.3999 210.2753 0002404  95.4009 264.7462 14.34221105 24884
IRIDIUM 83 [+]          
1 25531U 98066E   18137.43766733  .00000178  00000-0  56554-4 0  9999
2 25531  86.4002 210.3431 0002378  96.7661 263.3805 14.34222720 22263
IRIDIUM 20 [P]          
1 25577U 98074A   18137.44077262 -.00000015  00000-0 -11315-4 0  9999
2 25577  86.4197 115.7096 0003011  82.3292 277.8248 14.38598913 16357
IRIDIUM 11 [+]          
1 25578U 98074B   18137.46888288 -.00000045  00000-0 -21348-4 0  9990
2 25578  86.4199 115.9159 0003208  89.4522  23.1250 14.38606525 25325
IRIDIUM 14 [+]          
1 25777U 99032A   18137.34138531  .00000139  00000-0  42484-4 0  9998
2 25777  86.3962  84.3099 0002280  80.9250 279.2204 14.34212734  2585
IRIDIUM 21 [P]          
1 25778U 99032B   18137.48733661  .01767983 -15553-5  91456-3 0  9994
2 25778  86.3872  83.0704 0178261 135.5311 226.0444 15.93935254996171
IRIDIUM 91 [+]          
1 27372U 02005A   18137.41797212 -.00000039  00000-0 -20893-4 0  9991
2 27372  86.3954 147.5226 0002533  77.9717 282.1763 14.34218732859530
IRIDIUM 90 [B]          
1 27373U 02005B   18137.49159630  .00103948  91271-6  53825-3 0  9993
2 27373  86.4353 205.9679 0310884  96.5436 267.1304 15.35567435860144
IRIDIUM 95 [+]          
1 27375U 02005D   18137.45605274 -.00000028  00000-0 -17146-4 0  9999
2 27375  86.3951 147.5160 0003072  86.4670 273.6877 14.34218720858828
IRIDIUM 96 [P]          
1 27376U 02005E   18137.47756609  .00030810 -85570-6  32512-3 0  9996
2 27376  86.3788 170.1461 0290830 331.4391  27.1176 15.26202624865297
IRIDIUM 97 [+]          
1 27450U 02031A   18137.48488577  .00000095  00000-0  24455-4 0  9993
2 27450  86.4251 179.2124 0002498  95.6223 264.5260 14.38605640838171
IRIDIUM 98 [+]          
1 27451U 02031B   18137.36492880  .00000179  00000-0  56980-4 0  9994
2 27451  86.3982 242.4359 0002006  87.8637 272.2788 14.34219247839208
